NUSAT-1 (FRESCO)        
1 41557U 16033B   22294.83400341  .00018889  00000+0  50433-3 0  9998
2 41557  97.3892  33.0115 0009206 285.6537 227.3410 15.38115218356781
BEESAT-4                
1 41619U 16040W   22294.57660169  .00017283  00000+0  51162-3 0  9999
2 41619  97.2024 342.0113 0008997  35.2316 324.9521 15.34907741340042
CAS-2T & KS-1Q          
1 41847U 16066G   22294.43335924  .00001300  00000+0  20421-3 0  9990
2 41847  98.5378 358.9010 0362869 192.7872 166.3923 14.38811507312466
NAYIF-1 (EO-88)         
1 42017U 17008BX  22294.45286749  .00021290  00000+0  54957-3 0  9990
2 42017  97.2553 358.9737 0005296 143.4684 216.6924 15.39155634316429
ZHUHAI-1 02 (CAS-4B)    
1 42759U 17034B   22294.67084400  .00005905  00000+0  34167-3 0  9992
2 42759  43.0187 356.5628 0010152 357.6310 139.6893 15.12897284295463
ZHUHAI-1 01 (CAS-4A)    
1 42761U 17034D   22294.70120170  .00006200  00000+0  35713-3 0  9991
2 42761  43.0190 355.0900 0010656   0.5007 146.3993 15.12989223295475
MAX VALIER SAT          
1 42778U 17036P   22294.33010614  .00010950  00000+0  38922-3 0  9993
2 42778  97.1928 331.1703 0008840 231.1737 128.8715 15.29132785296123
RADFXSAT (FOX-1B)       
1 43017U 17073E   22294.44382668  .00003363  00000+0  25091-3 0  9997
2 43017  97.6569 183.4404 0246635 134.6659 227.4949 14.82320099265775
FOX-1D (AO-92)          
1 43137U 18004AC  22294.47835163  .00012282  00000+0  39966-3 0  9997
2 43137  97.3585   8.6176 0005963 274.0698  85.9862 15.31996865265626
DIWATA-2B               
1 43678U 18084H   22294.77803030  .00001051  00000+0  10843-3 0  9991
2 43678  97.9890  69.6742 0008758 224.4078 135.6433 14.92404578216694
ES'HAIL 2               
1 43700U 18090A   22294.21368856  .00000149  00000+0  00000+0 0  9992
2 43700   0.0177 242.6988 0001136 328.2865 281.3892  1.00270393 14299
FOX-1CLIFF (AO-95)      
1 43770U 18099N   22294.41193121  .00002438  00000+0  21609-3 0  9996
2 43770  97.6091 357.4469 0013069 207.2500 152.8038 14.97068867211858
ITASAT 1                
1 43786U 18099AE  22294.46281616  .00002924  00000+0  25777-3 0  9995
2 43786  97.6107 358.4784 0014224 199.0110 161.0583 14.97123360211906
JY1SAT (JO-97)          
1 43803U 18099AX  22294.16671526  .00002669  00000+0  23195-3 0  9993
2 43803  97.6065 357.9908 0014106 202.1876 157.8737 14.97758612211880
UWE-4                   
1 43880U 18111E   22294.47526711  .00003315  00000+0  27898-3 0  9995
2 43880  97.6552 198.5568 0010016 252.0122 108.0010 14.98892850208579
NEXUS (FO-99)           
1 43937U 19003F   22294.81267303  .00014815  00000+0  44963-3 0  9995
2 43937  97.1205 323.4144 0020656  64.7039 295.6342 15.33975676209320
PSAT2 (NO-104)          
1 44354U 19036R   22294.53463074  .00092770 -44616-5  58627-3 0  9993
2 44354  28.5233  15.0907 0171643 327.6138  31.4029 15.57304935184227
JAISAT-1                
1 44419U 19038F   22294.71866866  .00009826  00000+0  46383-3 0  9991
2 44419  97.6505 266.1189 0020487  59.3478 300.9772 15.19471225182215
DUCHIFAT-3              
1 44854U 19089C   22294.75451259  .00005813  00000+0  44066-3 0  9998
2 44854  36.9653  71.1455 0006278 172.7062 331.3949 15.02004941156921
CAS-6 (TIANQIN 1)       
1 44881U 19093C   22294.65160846  .00000941  00000+0  12539-3 0  9998
2 44881  97.8841  12.0033 0015951 131.8068 228.4512 14.81882526153469
RS-44 & BREEZE-KM R/B   
1 44909U 19096E   22294.29908968  .00000035  00000+0  92641-4 0  9994
2 44909  82.5196 146.6912 0217923  25.7287 335.4463 12.79716003131608
ORBITAL FACTORY 2 (OF-2)
1 45113U 19071C   22294.66123493  .00037427  00000+0  58634-3 0  9996
2 45113  51.6346 155.4382 0008492 259.5836 100.4197 15.53310549152938
HUSKYSAT-1 (HO-107)     
1 45119U 19071J   22294.64694791  .00031217  00000+0  52804-3 0  9998
2 45119  51.6352 156.8085 0008454 257.4858 102.5185 15.51261561152909
BY70-2                  
1 45857U 20042B   22294.74437622  .00010811  00000+0  13825-2 0  9992
2 45857  97.9479  10.4552 0010958  67.2462 292.9727 14.81508278124147
SALSAT                  
1 46495U 20068K   22294.50883108  .00002647  00000+0  19000-3 0  9997
2 46495  97.7406 235.9469 0015408 204.2667 155.7835 15.05114275113141
BY70-3                  
1 46839U 20079N   22294.77175667  .00039500  00000+0  74180-3 0  9992
2 46839  97.1847   5.5874 0004677 221.7405 234.1223 15.48493395109741
RADFXSAT-2 (AO-109)     
1 47311U 21002C   22294.25438463  .00012638  00000+0  46694-3 0  9996
2 47311  60.6839 248.0177 0036342  56.9536 303.5035 15.27506850 97667
UVSQ-SAT                
1 47438U 21006AB  22294.38808287  .00007356  00000+0  37264-3 0  9993
2 47438  97.4233 350.8246 0011268 190.5389 169.5610 15.17219152 96363
DIY-1 (ARDUIQUBE)       
1 47963U 21022AH  22294.47993705  .00021337  00000+0  10510-2 0  9993
2 47963  97.5179 194.6003 0018191  61.9590 298.3481 15.17837596 86036
XW-3 (CAS-9)            
1 50466U 21131B   22294.83353457  .00000220  00000+0  86520-4 0  9994
2 50466  98.5726  11.9773 0005605 127.7655 232.4041 14.38553644 43081
TEVEL-3                 
1 50988U 22002E   22294.77851170  .00010337  00000+0  53743-3 0  9999
2 50988  97.4679 359.6920 0008862 354.7449 141.9867 15.16220077 42540
TEVEL-8                 
1 50989U 22002F   22294.78855358  .00010239  00000+0  53318-3 0  9992
2 50989  97.4707 359.7345 0009215 354.3514 145.2834 15.16164560 42542
TEVEL-5                 
1 50998U 22002Q   22294.76034382  .00009916  00000+0  50805-3 0  9994
2 50998  97.4664 359.8439 0010461 347.6911 160.4812 15.16736338 42554
TEVEL-6                 
1 50999U 22002R   22294.75964252  .00009998  00000+0  51217-3 0  9990
2 50999  97.4669 359.8426 0010304 347.8532 160.5262 15.16742185 42550
TEVEL-1                 
1 51013U 22002AF  22294.78316206  .00010318  00000+0  53689-3 0  9994
2 51013  97.4684 359.6682 0008892 354.2063 144.0709 15.16191071 42541
TEVEL-7                 
1 51062U 22002CG  22294.78258472  .00010192  00000+0  53090-3 0  9994
2 51062  97.4703 359.7118 0008639 353.4586 102.8836 15.16159693 42549
TEVEL-4                 
1 51063U 22002CH  22294.78383219  .00010132  00000+0  52797-3 0  9990
2 51063  97.4700 359.7070 0008998 354.5711 101.6279 15.16145520 42546
TEVEL-2                 
1 51069U 22002CP  22294.78005145  .00010313  00000+0  53634-3 0  9997
2 51069  97.4679 359.6769 0008608 355.1234 141.2993 15.16213975 42549
GREENCUBE               
1 53106U 22080B   22291.96147202 -.00000003  00000+0  00000+0 0  9996
2 53106  70.1713  43.5209 0008810 236.5247 123.4571  6.42557698  6253
YUZGU 9 (RS3S)          
1 53308U 98067TT  22294.84643760  .00074612  00000+0  91320-3 0  9993
2 53308  51.6382  66.5577 0005575 326.5354  33.5286 15.59691692 14401
YUZGU 7 (RS1S)          
1 53309U 98067TU  22294.83872293  .00077250  00000+0  93152-3 0  9994
2 53309  51.6380  66.5025 0005671 333.8824  26.1882 15.60067155 14355
YUZGU 11 (RS5S)         
1 53310U 98067TV  22294.84567794  .00072976  00000+0  89261-3 0  9990
2 53310  51.6382  66.5531 0005296 333.0784  26.9934 15.59719618 14386
YUZGU 12 (RS6S)         
1 53311U 98067TW  22294.82885049  .00072096  00000+0  86077-3 0  9990
2 53311  51.6380  66.4356 0005931 321.1796  38.8770 15.60354853 14407
TSIOLKOVSKY-RYAZAN 1 (*)
1 53312U 98067TX  22294.83690525  .00077733  00000+0  93733-3 0  9995
2 53312  51.6388  66.4936 0005684 336.7680  23.3055 15.60064954 14347
TSIOLKOVSKY-RYAZAN 2 (*)
1 53313U 98067TY  22294.77074599  .00072682  00000+0  87895-3 0  9996
2 53313  51.6388  66.8022 0005169 334.3391  25.7345 15.60020868 14387
YUZGU 10 (RS4S)         
1 53321U 98067TZ  22294.84401594  .00074040  00000+0  89967-3 0  9994
2 53321  51.6382  66.5417 0005577 329.8188  30.2484 15.59884803 14392
RS29S (SXC3-2110 CYCLO*)
1 53373U 22096D   22294.74300411  .00013578  00000+0  53021-3 0  9996
2 53373  97.4283 195.6851 0001170  52.1655  35.3993 15.26013249 11191
RS32S (SXC3-212 MONITO*)
1 53374U 22096E   22294.73761181  .00013546  00000+0  52716-3 0  9996
2 53374  97.4272 195.6898 0000874  63.5957  23.7003 15.26128284 11191
RS34S (SXC3-218 KUZBAS*)
1 53375U 22096F   22294.80624778  .00010973  00000+0  43069-3 0  9997
2 53375  97.4282 195.7522 0000674  57.5390  29.8415 15.25894624 11203
RS23S (SXC3-21 UTMN)    
1 53376U 22096G   22294.73859429  .00011062  00000+0  43366-3 0  9993
2 53376  97.4277 195.6890 0000581  88.1471 356.0673 15.25933669 11194
RS28S (SXC3-214 MIET-A*)
1 53377U 22096H   22294.73803929  .00011271  00000+0  44161-3 0  9994
2 53377  97.4279 195.6913 0000509  75.4615  12.8379 15.25948069 11192
RS26S (KAI-1)           
1 53378U 22096J   22294.73839998  .00009743  00000+0  38346-3 0  9999
2 53378  97.4282 195.6897 0000706 128.3891 318.2003 15.25838162 11190
RS19S (SXC3-219 ISOI)   
1 53381U 22096M   22294.78234134  .00011330  00000+0  43754-3 0  9993
2 53381  97.4278 195.7846 0004330 160.0445 289.9242 15.26421419 11204
RS21S (CUBESX-HSE-2)    
1 53383U 22096P   22294.77974620  .00011024  00000+0  42556-3 0  9994
2 53383  97.4285 195.7879 0004433 159.2025 288.5726 15.26440928 11206
RS30S (SXC3-217 SIREN)  
1 53384U 22096Q   22294.77715221  .00010479  00000+0  40524-3 0  9991
2 53384  97.4280 195.7846 0004094 160.8200 272.5037 15.26397628 11208
RS20S (GEOSCAN-EDELVEIS)
1 53385U 22096R   22294.76572057  .00014188  00000+0  53849-3 0  9994
2 53385  97.4278 195.8047 0004408 159.1562 286.6613 15.26942322 11237
RS33S (SXC3-215 VIZARD) 
1 53386U 22096S   22294.74985103  .00017120  00000+0  63829-3 0  9991
2 53386  97.4280 195.8254 0004984 164.5191 281.4160 15.27487825 11220
